OBJECT_NAME,OBJECT_ID,EPOCH,MEAN_MOTION,ECCENTRICITY,INCLINATION,RA_OF_ASC_NODE,ARG_OF_PERICENTER,MEAN_ANOMALY,EPHEMERIS_TYPE,CLASSIFICATION_TYPE,NORAD_CAT_ID,ELEMENT_SET_NO,REV_AT_EPOCH,BSTAR,MEAN_MOTION_DOT,MEAN_MOTION_DDOT
STARLINK-34108,2025-223U,2026-07-15T22:32:54.591936,15.30204633,.00012049,53.1599,58.2955,95.7274,264.3865,0,U,65872,999,4384,.31534335E-3,.8993E-4,0
STARLINK-35423,2025-223V,2026-07-15T21:44:21.583104,15.34396001,.00010523,53.1573,56.6685,88.4409,271.6714,0,U,65873,999,4386,.28416026E-3,.9235E-4,0
STARLINK-35425,2025-223W,2026-07-15T21:11:09.225024,15.34401348,.0001604,53.1593,57.2307,133.2647,226.8490,0,U,65874,999,4385,.40813285E-3,.13438E-3,0
STARLINK-34688,2025-223X,2026-07-15T22:11:38.086368,15.34398985,.00013489,53.1595,56.7903,78.9931,281.1224,0,U,65875,999,4386,.28748069E-3,.9349E-4,0
STARLINK-34438,2025-223Y,2026-07-15T20:07:39.951840,15.34394877,.00015,53.1598,57.6696,88.9312,271.1863,0,U,65876,999,4384,.31528877E-3,.10289E-3,0
STARLINK-35462,2025-223Z,2026-07-15T22:20:45.355200,15.30198229,.00013099,53.1589,58.2408,85.4682,274.6468,0,U,65877,999,4384,.43289328E-3,.12483E-3,0
STARLINK-35453,2025-223AA,2026-07-15T20:25:42.767616,15.34399410,.00011746,53.1583,57.0417,85.5991,274.5146,0,U,65878,999,4385,.23790355E-3,.767E-4,0
STARLINK-35418,2025-223AB,2026-07-15T22:20:43.359360,15.34397009,.00011482,53.1605,56.8238,101.3559,258.7573,0,U,65879,999,4386,.3121526E-3,.10184E-3,0
STARLINK-35445,2025-223AC,2026-07-15T22:14:40.087104,15.34423933,.00012311,53.1596,56.7985,104.7315,255.3825,0,U,65880,999,4386,.50936489E-3,.16885E-3,0
STARLINK-35464,2025-223AD,2026-07-15T21:50:25.143072,15.34393635,.00013732,53.1581,56.6939,117.7541,242.3601,0,U,65881,999,4386,.22315733E-3,.7169E-4,0
STARLINK-35270,2025-224A,2026-07-15T19:20:50.771616,15.34395863,.0001257,53.1602,133.8476,111.2431,248.8706,0,U,65882,999,4447,.1254449E-3,.3864E-4,0
STARLINK-35367,2025-224B,2026-07-15T06:32:18.916224,15.34365753,.00013082,53.1561,136.2055,114.2725,245.8414,0,U,65883,999,4439,-.15115446E-3,-.5474E-4,0
STARLINK-35384,2025-224C,2026-07-15T22:00:01.999584,15.30231691,.00013032,53.1591,135.8344,94.4415,324.0371,0,U,65884,999,587,-.13359987E-3,-.4318E-4,0
STARLINK-35415,2025-224D,2026-07-15T20:27:22.347072,15.34400768,.00014949,53.1587,133.4243,100.9763,259.1408,0,U,65885,999,4443,.23761599E-3,.766E-4,0
STARLINK-35413,2025-224E,2026-07-15T23:28:54.283584,15.34398819,.00013777,53.1588,132.7881,95.6678,264.4482,0,U,65886,999,4445,.23410632E-3,.7541E-4,0
STARLINK-35332,2025-224F,2026-07-15T06:05:01.776192,15.34407634,.00012994,53.1578,136.0840,88.5734,271.5418,0,U,65887,999,4442,.37721448E-3,.12393E-3,0
STARLINK-35362,2025-224G,2026-07-15T23:29:26.715552,15.30209392,.00013483,53.1595,135.6276,90.5676,269.5480,0,U,65888,999,4446,.22307274E-3,.6255E-4,0
STARLINK-35193,2025-224H,2026-07-15T20:35:00.799296,15.30207076,.00012766,53.1579,136.2824,104.8656,255.2486,0,U,65889,999,4447,.31027552E-3,.8843E-4,0
STARLINK-34542,2025-224J,2026-07-15T20:30:27.606816,15.30202284,.0000756,53.1585,136.2772,90.2224,269.8864,0,U,65890,999,4449,.29322877E-3,.8336E-4,0
STARLINK-34791,2025-224K,2026-07-15T22:00:01.999584,15.30184914,.00013166,53.1573,136.0796,95.0240,195.5139,0,U,65891,999,586,-.57336634E-4,-.2056E-4,0
STARLINK-34853,2025-224L,2026-07-15T22:19:21.110016,15.34404664,.00014211,53.1580,133.1984,95.0658,265.0507,0,U,65892,999,4447,.3174108E-3,.10364E-3,0
STARLINK-34921,2025-224M,2026-07-15T06:19:25.082400,15.30205904,.00012546,53.1579,138.9740,100.2233,259.8909,0,U,65893,999,4440,.30560241E-3,.8704E-4,0
STARLINK-34672,2025-224N,2026-07-15T23:23:22.031520,15.30201165,.00012657,53.1587,135.5911,90.4334,269.6812,0,U,65894,999,4451,.15398753E-3,.4204E-4,0
STARLINK-34898,2025-224P,2026-07-15T22:25:24.251808,15.34418128,.00015044,53.1583,133.2154,116.7845,243.3312,0,U,65895,999,4454,.51040522E-3,.16917E-3,0
STARLINK-34906,2025-224Q,2026-07-15T19:47:35.943648,15.31714792,.00020535,53.1574,135.3742,45.2127,314.9041,0,U,65896,999,4450,.35023091E-3,.10523E-3,0
STARLINK-34934,2025-224R,2026-07-15T06:29:16.111968,15.34402612,.00014514,53.1591,136.1795,96.5085,263.6082,0,U,65897,999,4439,.45695919E-3,.15095E-3,0
STARLINK-34936,2025-224S,2026-07-15T05:04:33.777120,15.34406678,.00015155,53.1582,136.5251,91.8780,268.2397,0,U,65898,999,4443,.31099587E-3,.10148E-3,0
STARLINK-35272,2025-224T,2026-07-15T23:25:52.354560,15.34400767,.00013479,53.1580,132.7637,94.9562,265.1594,0,U,65899,999,4454,.31162247E-3,.10167E-3,0
STARLINK-35264,2025-224U,2026-07-15T20:12:13.132224,15.34405465,.00016778,53.1603,133.3484,118.0520,242.0652,0,U,65900,999,4452,.3124221E-3,.10196E-3,0
STARLINK-35249,2025-224V,2026-07-15T23:26:23.489664,15.30224368,.00013009,53.1590,135.6006,88.8605,271.2545,0,U,65901,999,4449,.41855791E-3,.12067E-3,0
