STARLINK-34108          
1 65872U 25223U   26196.93952074  .00008993  00000+0  31534-3 0  9992
2 65872  53.1599  58.2955 0001204  95.7274 264.3865 15.30204633 43847
STARLINK-35423          
1 65873U 25223V   26196.90580536  .00009235  00000+0  28416-3 0  9995
2 65873  53.1573  56.6685 0001052  88.4409 271.6714 15.34396001 43863
STARLINK-35425          
1 65874U 25223W   26196.88274566  .00013438  00000+0  40813-3 0  9991
2 65874  53.1593  57.2307 0001604 133.2647 226.8490 15.34401348 43853
STARLINK-34688          
1 65875U 25223X   26196.92474637  .00009349  00000+0  28748-3 0  9997
2 65875  53.1595  56.7903 0001348  78.9931 281.1224 15.34398985 43860
STARLINK-34438          
1 65876U 25223Y   26196.83865685  .00010289  00000+0  31529-3 0  9991
2 65876  53.1598  57.6696 0001500  88.9312 271.1863 15.34394877 43849
STARLINK-35462          
1 65877U 25223Z   26196.93108050  .00012483  00000+0  43289-3 0  9993
2 65877  53.1589  58.2408 0001309  85.4682 274.6468 15.30198229 43845
STARLINK-35453          
1 65878U 25223AA  26196.85118944  .00007670  00000+0  23790-3 0  9995
2 65878  53.1583  57.0417 0001174  85.5991 274.5146 15.34399410 43853
STARLINK-35418          
1 65879U 25223AB  26196.93105740  .00010184  00000+0  31215-3 0  9990
2 65879  53.1605  56.8238 0001148 101.3559 258.7573 15.34397009 43866
STARLINK-35445          
1 65880U 25223AC  26196.92685286  .00016885  00000+0  50936-3 0  9994
2 65880  53.1596  56.7985 0001231 104.7315 255.3825 15.34423933 43864
STARLINK-35464          
1 65881U 25223AD  26196.91001323  .00007169  00000+0  22316-3 0  9994
2 65881  53.1581  56.6939 0001373 117.7541 242.3601 15.34393635 43862
STARLINK-35270          
1 65882U 25224A   26196.80614319  .00003864  00000+0  12544-3 0  9999
2 65882  53.1602 133.8476 0001257 111.2431 248.8706 15.34395863 44479
STARLINK-35367          
1 65883U 25224B   26196.27244116 -.00005474  00000+0 -15115-3 0  9993
2 65883  53.1561 136.2055 0001308 114.2725 245.8414 15.34365753 44399
STARLINK-35384          
1 65884U 25224C   26196.91668981 -.00004318  00000+0 -13360-3 0  9991
2 65884  53.1591 135.8344 0001303  94.4415 324.0371 15.30231691  5870
STARLINK-35415          
1 65885U 25224D   26196.85234198  .00007660  00000+0  23762-3 0  9992
2 65885  53.1587 133.4243 0001494 100.9763 259.1408 15.34400768 44439
STARLINK-35413          
1 65886U 25224E   26196.97840606  .00007541  00000+0  23411-3 0  9992
2 65886  53.1588 132.7881 0001377  95.6678 264.4482 15.34398819 44452
STARLINK-35332          
1 65887U 25224F   26196.25349278  .00012393  00000+0  37721-3 0  9993
2 65887  53.1578 136.0840 0001299  88.5734 271.5418 15.34407634 44422
STARLINK-35362          
1 65888U 25224G   26196.97878143  .00006255  00000+0  22307-3 0  9995
2 65888  53.1595 135.6276 0001348  90.5676 269.5480 15.30209392 44460
STARLINK-35193          
1 65889U 25224H   26196.85764814  .00008843  00000+0  31028-3 0  9997
2 65889  53.1579 136.2824 0001276 104.8656 255.2486 15.30207076 44472
STARLINK-34542          
1 65890U 25224J   26196.85448619  .00008336  00000+0  29323-3 0  9993
2 65890  53.1585 136.2772 0000756  90.2224 269.8864 15.30202284 44493
STARLINK-34791          
1 65891U 25224K   26196.91668981 -.00002056  00000+0 -57337-4 0  9999
2 65891  53.1573 136.0796 0001316  95.0240 195.5139 15.30184914  5866
STARLINK-34853          
1 65892U 25224L   26196.93010544  .00010364  00000+0  31741-3 0  9997
2 65892  53.1580 133.1984 0001421  95.0658 265.0507 15.34404664 44475
STARLINK-34921          
1 65893U 25224M   26196.26348475  .00008704  00000+0  30560-3 0  9994
2 65893  53.1579 138.9740 0001254 100.2233 259.8909 15.30205904 44401
STARLINK-34672          
1 65894U 25224N   26196.97456055  .00004204  00000+0  15399-3 0  9991
2 65894  53.1587 135.5911 0001265  90.4334 269.6812 15.30201165 44517
STARLINK-34898          
1 65895U 25224P   26196.93430847  .00016917  00000+0  51041-3 0  9997
2 65895  53.1583 133.2154 0001504 116.7845 243.3312 15.34418128 44543
STARLINK-34906          
1 65896U 25224Q   26196.82472157  .00010523  00000+0  35023-3 0  9995
2 65896  53.1574 135.3742 0002053  45.2127 314.9041 15.31714792 44502
STARLINK-34934          
1 65897U 25224R   26196.27032537  .00015095  00000+0  45696-3 0  9995
2 65897  53.1591 136.1795 0001451  96.5085 263.6082 15.34402612 44392
STARLINK-34936          
1 65898U 25224S   26196.21150205  .00010148  00000+0  31100-3 0  9992
2 65898  53.1582 136.5251 0001515  91.8780 268.2397 15.34406678 44436
STARLINK-35272          
1 65899U 25224T   26196.97630040  .00010167  00000+0  31162-3 0  9995
2 65899  53.1580 132.7637 0001347  94.9562 265.1594 15.34400767 44546
STARLINK-35264          
1 65900U 25224U   26196.84181866  .00010196  00000+0  31242-3 0  9992
2 65900  53.1603 133.3484 0001677 118.0520 242.0652 15.34405465 44527
STARLINK-35249          
1 65901U 25224V   26196.97666076  .00012067  00000+0  41856-3 0  9999
2 65901  53.1590 135.6006 0001300  88.8605 271.2545 15.30224368 44497
